[{"OBJECT_NAME":"LYNK TOWER 4","OBJECT_ID":"2023-001AB","EPOCH":"2026-03-09T16:15:30.644928","MEAN_MOTION":15.31819885,"ECCENTRICITY":0.00103213,"INCLINATION":97.3324,"RA_OF_ASC_NODE":128.594,"ARG_OF_PERICENTER":112.3386,"MEAN_ANOMALY":247.895,"EPHEMERIS_TYPE":0,"CLASSIFICATION_TYPE":"U","NORAD_CAT_ID":55034,"ELEMENT_SET_NO":999,"REV_AT_EPOCH":17658,"BSTAR":0.00030013829,"MEAN_MOTION_DOT":9.16e-5,"MEAN_MOTION_DDOT":0},{"OBJECT_NAME":"STARLINK-32077","OBJECT_ID":"2024-136R","EPOCH":"2026-03-09T09:52:37.501824","MEAN_MOTION":15.30189785,"ECCENTRICITY":0.00014224,"INCLINATION":53.1613,"RA_OF_ASC_NODE":76.8348,"ARG_OF_PERICENTER":76.8529,"MEAN_ANOMALY":283.2631,"EPHEMERIS_TYPE":0,"CLASSIFICATION_TYPE":"U","NORAD_CAT_ID":60344,"ELEMENT_SET_NO":999,"REV_AT_EPOCH":8962,"BSTAR":1.6243841e-5,"MEAN_MOTION_DOT":1.22e-6,"MEAN_MOTION_DDOT":0}]
